NORAD_CAT_ID,OBJECT_NAME,OBJECT_TYPE,EPOCH,MEAN_MOTION,ECCENTRICITY,INCLINATION,RA_OF_ASC_NODE,ARG_OF_PERICENTER,MEAN_ANOMALY,BSTAR,MEAN_MOTION_DOT,MEAN_MOTION_DDOT,TLE_LINE0,TLE_LINE1,TLE_LINE2,SEMIMAJOR_AXIS,PERIOD,APOGEE,PERIGEE,DECAYED
53920.0,STARLINK-5025,PAYLOAD,2023-04-17 19:14:02,15.08839079,0.0001023,53.2174,18.465,76.804,283.3067,0.00016729,2.376e-05,0.0,0 STARLINK-5025,1 53920U 22119AL  23107.80142088  .00002376  00000-0  16729-3 0  9994,2 53920  53.2174  18.4650 0001023  76.8040 283.3067 15.08839079 31854,6917.883,95.438,540.456,539.041,0.0
53920.0,STARLINK-5025,PAYLOAD,2023-04-18 03:10:58,15.08853768,0.000109,53.217,16.978,80.8094,279.3021,0.00082517,0.00012874,0.0,0 STARLINK-5025,1 53920U 22119AL  23108.13261892  .00012874  00000-0  82517-3 0  9998,2 53920  53.2170  16.9780 0001090  80.8094 279.3021 15.08853768 31907,6917.838,95.437,540.457,538.949,0.0
53920.0,STARLINK-5025,PAYLOAD,2023-04-18 17:29:26,15.08842097,0.0001427,53.2171,14.303,70.1438,289.9707,0.00042275,6.447e-05,0.0,0 STARLINK-5025,1 53920U 22119AL  23108.72878471  .00006447  00000-0  42275-3 0  9996,2 53920  53.2171  14.3030 0001427  70.1438 289.9707 15.08842097 31996,6917.874,95.437,540.726,538.752,0.0
53920.0,STARLINK-5025,PAYLOAD,2023-04-19 06:12:31,15.08859404,8.87e-05,53.2181,11.9254,102.3524,257.7567,0.0010017,0.00015698,0.0,0 STARLINK-5025,1 53920U 22119AL  23109.25870170  .00015698  00000-0  10017-2 0  9999,2 53920  53.2181  11.9254 0000887 102.3524 257.7567 15.08859404 32494,6917.821,95.436,540.3,539.072,0.0
53920.0,STARLINK-5025,PAYLOAD,2023-04-20 02:52:32,15.08865107,0.000133,53.2176,8.0584,77.5079,282.6062,0.0010375,0.00016274,0.0,0 STARLINK-5025,1 53920U 22119AL  23110.11982093  .00016274  00000-0  10375-2 0  9992,2 53920  53.2176   8.0584 0001330  77.5079 282.6062 15.08865107 32206,6917.804,95.436,540.589,538.749,0.0
53920.0,STARLINK-5025,PAYLOAD,2023-04-21 02:43:19,15.08845439,9.99e-05,53.2182,3.5974,78.287,281.8234,0.00057715,8.911e-05,0.0,0 STARLINK-5025,1 53920U 22119AL  23111.11342569  .00008911  00000-0  57715-3 0  9990,2 53920  53.2182   3.5974 0000999  78.2870 281.8234 15.08845439 32773,6917.864,95.437,540.42,539.038,0.0
53920.0,STARLINK-5025,PAYLOAD,2023-04-22 02:34:06,15.08859289,0.0001053,53.2178,359.1358,81.505,278.6061,0.00073863,0.00011493,0.0,0 STARLINK-5025,1 53920U 22119AL  23112.10702220  .00011493  00000-0  73863-3 0  9995,2 53920  53.2178 359.1358 0001053  81.5050 278.6061 15.08859289 32920,6917.821,95.436,540.415,538.958,0.0
53920.0,STARLINK-5025,PAYLOAD,2023-04-22 15:17:11,15.08857016,0.0002323,53.2183,356.765,60.4844,299.638,0.00051144,7.865e-05,0.0,0 STARLINK-5025,1 53920U 22119AL  23112.63694367  .00007865  00000-0  51144-3 0  9991,2 53920  53.2183 356.7650 0002323  60.4844 299.6380 15.08857016 33005,6917.828,95.436,541.3,538.086,0.0
53920.0,STARLINK-5025,PAYLOAD,2023-04-23 02:24:53,15.08849892,0.0001995,53.2183,354.6785,69.9637,290.157,1.359e-05,-7.2e-07,0.0,0 STARLINK-5025,1 53920U 22119AL  23113.10062355 -.00000072  00000-0  13590-4 0  9998,2 53920  53.2183 354.6785 0001995  69.9637 290.1570 15.08849892 32659,6917.85,95.437,541.095,538.335,0.0
53920.0,STARLINK-5025,PAYLOAD,2023-04-23 19:54:08,15.08844588,0.0001092,53.217,351.4061,99.9661,260.1455,8.2934e-05,1.032e-05,0.0,0 STARLINK-5025,1 53920U 22119AL  23113.82926069  .00001032  00000-0  82934-4 0  9992,2 53920  53.2170 351.4061 0001092  99.9661 260.1455 15.08844588 33180,6917.866,95.437,540.487,538.976,0.0
53920.0,STARLINK-5025,PAYLOAD,2023-04-24 02:15:40,15.08857487,0.000112,53.2176,350.2177,94.9235,265.1885,0.00045975,7.04e-05,0.0,0 STARLINK-5025,1 53920U 22119AL  23114.09421785  .00007040  00000-0  45975-3 0  9995,2 53920  53.2176 350.2177 0001120  94.9235 265.1885 15.08857487 33224,6917.827,95.436,540.467,538.917,0.0
53920.0,STARLINK-5025,PAYLOAD,2023-04-24 18:09:30,15.0888715,0.0001214,53.2176,347.2434,97.4544,262.6586,0.0013236,0.00020867,0.0,0 STARLINK-5025,1 53920U 22119AL  23114.75660603  .00020867  00000-0  13236-2 0  9998,2 53920  53.2176 347.2434 0001214  97.4544 262.6586 15.08887150 32905,6917.736,95.435,540.441,538.761,0.0
53920.0,STARLINK-5025,PAYLOAD,2023-04-25 02:06:25,15.08886842,0.0001154,53.2166,345.7549,88.1803,271.9321,0.00084033,0.00013128,0.0,0 STARLINK-5025,1 53920U 22119AL  23115.08779739  .00013128  00000-0  84033-3 0  9992,2 53920  53.2166 345.7549 0001154  88.1803 271.9321 15.08886842 33371,6917.737,95.435,540.401,538.804,0.0
53920.0,STARLINK-5025,PAYLOAD,2023-04-26 03:32:38,15.0881599,0.0001148,53.2159,340.9982,107.4428,252.669,1.7534e-05,-9e-08,0.0,0 STARLINK-5025,1 53920U 22119AL  23116.14767255 -.00000009  00000-0  17534-4 0  9998,2 53920  53.2159 340.9982 0001148 107.4428 252.6690 15.08815990 33531,6917.954,95.439,540.613,539.025,0.0
53920.0,STARLINK-5025,PAYLOAD,2023-04-26 19:26:31,15.08828629,0.0001084,53.2158,338.0247,122.9581,237.1515,0.00071193,0.00011057,0.0,0 STARLINK-5025,1 53920U 22119AL  23116.81008192  .00011057  00000-0  71193-3 0  9994,2 53920  53.2158 338.0247 0001084 122.9581 237.1515 15.08828629 33631,6917.915,95.438,540.53,539.03,0.0
53920.0,STARLINK-5025,PAYLOAD,2023-04-27 20:52:40,15.08867274,0.0001105,53.2162,333.2668,115.0728,245.0379,0.0010118,0.00015863,0.0,0 STARLINK-5025,1 53920U 22119AL  23117.86991351  .00015863  00000-0  10118-2 0  9996,2 53920  53.2162 333.2668 0001105 115.0728 245.0379 15.08867274 33376,6917.797,95.436,540.426,538.898,0.0
53920.0,STARLINK-5025,PAYLOAD,2023-04-28 00:03:26,15.08874566,0.0001061,53.2163,332.6719,115.0682,245.042,0.0011648,0.00018316,0.0,0 STARLINK-5025,1 53920U 22119AL  23118.00239050  .00018316  00000-0  11648-2 0  9999,2 53920  53.2163 332.6719 0001061 115.0682 245.0420 15.08874566 33815,6917.775,95.435,540.374,538.906,0.0
53920.0,STARLINK-5025,PAYLOAD,2023-04-28 20:43:27,15.08848923,0.0001317,53.2164,328.8074,92.8822,267.2321,0.00036891,5.59e-05,0.0,0 STARLINK-5025,1 53920U 22119AL  23118.86351382  .00005590  00000-0  36891-3 0  9994,2 53920  53.2164 328.8074 0001317  92.8822 267.2321 15.08848923 33521,6917.853,95.437,540.629,538.807,0.0
53920.0,STARLINK-5025,PAYLOAD,2023-04-29 01:29:37,15.08846339,0.0001086,53.2157,327.9149,91.8991,268.2125,0.00044241,6.761e-05,0.0,0 STARLINK-5025,1 53920U 22119AL  23119.06223421  .00006761  00000-0  44241-3 0  9998,2 53920  53.2157 327.9149 0001086  91.8991 268.2125 15.08846339 33976,6917.861,95.437,540.477,538.975,0.0
53920.0,STARLINK-5025,PAYLOAD,2023-04-29 15:48:05,15.08844694,0.0001241,53.2157,325.2389,88.1447,271.9688,0.0003708,5.619e-05,0.0,0 STARLINK-5025,1 53920U 22119AL  23119.65839486  .00005619  00000-0  37080-3 0  9991,2 53920  53.2157 325.2389 0001241  88.1447 271.9688 15.08844694 33642,6917.866,95.437,540.59,538.873,0.0
53920.0,STARLINK-5025,PAYLOAD,2023-04-29 23:45:00,15.08854714,0.0001193,53.2161,323.7513,88.8889,271.2239,0.00038849,5.903e-05,0.0,0 STARLINK-5025,1 53920U 22119AL  23119.98959002  .00005903  00000-0  38849-3 0  9994,2 53920  53.2161 323.7513 0001193  88.8889 271.2239 15.08854714 34114,6917.835,95.437,540.526,538.875,0.0
53920.0,STARLINK-5025,PAYLOAD,2023-04-30 18:49:38,15.08842289,0.0001057,53.2161,320.1843,84.4004,275.7109,0.00012215,1.657e-05,0.0,0 STARLINK-5025,1 53920U 22119AL  23120.78447389  .00001657  00000-0  12215-3 0  9995,2 53920  53.2161 320.1843 0001057  84.4004 275.7109 15.08842289 33816,6917.873,95.437,540.47,539.007,0.0
53920.0,STARLINK-5025,PAYLOAD,2023-05-01 12:18:52,15.08842247,0.0001163,53.2164,316.9155,87.8669,272.2457,0.00014718,2.055e-05,0.0,0 STARLINK-5025,1 53920U 22119AL  23121.51311325  .00002055  00000-0  14718-3 0  9990,2 53920  53.2164 316.9155 0001163  87.8669 272.2457 15.08842247 34341,6917.874,95.437,540.543,538.934,0.0
53920.0,STARLINK-5025,PAYLOAD,2023-05-01 17:05:02,15.08837526,0.0001152,53.2163,316.021,89.722,270.3904,1.2065e-05,-9.6e-07,0.0,0 STARLINK-5025,1 53920U 22119AL  23121.71183540 -.00000096  00000-0  12065-4 0  9996,2 53920  53.2163 316.0210 0001152  89.7220 270.3904 15.08837526 33951,6917.888,95.438,540.55,538.956,0.0
53920.0,STARLINK-5025,PAYLOAD,2023-05-01 20:15:48,15.08840224,0.0001145,53.2165,315.4262,89.4902,270.6221,5.2023e-05,5.4e-06,0.0,0 STARLINK-5025,1 53920U 22119AL  23121.84431515  .00000540  00000-0  52023-4 0  9999,2 53920  53.2165 315.4262 0001145  89.4902 270.6221 15.08840224 34392,6917.88,95.438,540.537,538.953,0.0
53920.0,STARLINK-5025,PAYLOAD,2023-05-02 01:01:58,15.0884515,0.0001143,53.2164,314.5327,100.6819,259.4302,0.0001553,2.185e-05,0.0,0 STARLINK-5025,1 53920U 22119AL  23122.04303284  .00002185  00000-0  15530-3 0  9991,2 53920  53.2164 314.5327 0001143 100.6819 259.4302 15.08845150 34000,6917.865,95.437,540.52,538.939,0.0
53920.0,STARLINK-5025,PAYLOAD,2023-05-02 16:55:49,15.08841384,0.0001095,53.2166,311.5589,97.9348,262.1768,9.6995e-05,1.256e-05,0.0,0 STARLINK-5025,1 53920U 22119AL  23122.70543516  .00001256  00000-0  96995-4 0  9991,2 53920  53.2166 311.5589 0001095  97.9348 262.1768 15.08841384 34103,6917.876,95.437,540.499,538.984,0.0
53920.0,STARLINK-5025,PAYLOAD,2023-05-02 20:06:35,15.08846288,0.0001147,53.2167,310.9644,95.3041,264.8082,0.00014183,1.97e-05,0.0,0 STARLINK-5025,1 53920U 22119AL  23122.83791360  .00001970  00000-0  14183-3 0  9998,2 53920  53.2167 310.9644 0001147  95.3041 264.8082 15.08846288 34543,6917.861,95.437,540.52,538.933,0.0
53920.0,STARLINK-5025,PAYLOAD,2023-05-03 12:00:27,15.08836845,0.0001325,53.2164,307.9911,78.3614,281.7527,8.9555e-05,1.138e-05,0.0,0 STARLINK-5025,1 53920U 22119AL  23123.50032076  .00001138  00000-0  89555-4 0  9997,2 53920  53.2164 307.9911 0001325  78.3614 281.7527 15.08836845 34649,6917.89,95.438,540.672,538.838,0.0
53920.0,STARLINK-5025,PAYLOAD,2023-05-03 19:57:23,15.08838324,0.0001251,53.2167,306.5041,80.8728,279.2406,9.8309e-05,1.277e-05,0.0,0 STARLINK-5025,1 53920U 22119AL  23123.83152053  .00001277  00000-0  98309-4 0  9992,2 53920  53.2167 306.5041 0001251  80.8728 279.2406 15.08838324 34274,6917.886,95.438,540.616,538.885,0.0
